{"fetched_at":"2026-07-19T17:31:11.371Z","source":"https://celestrak.org/NORAD/elements/gp.php?GROUP=planet&FORMAT=JSON","constellation":"pelican","records":[{"OBJECT_NAME":"PELICAN-1","OBJECT_ID":"2023-174AS","EPOCH":"2026-07-18T05:44:10.510656","CLASSIFICATION_TYPE":"U","MEAN_MOTION":15.72007488,"ECCENTRICITY":0.00063369,"INCLINATION":97.4011,"RA_OF_ASC_NODE":301.507,"ARG_OF_PERICENTER":192.5328,"MEAN_ANOMALY":167.5779,"EPHEMERIS_TYPE":0,"NORAD_CAT_ID":58296,"ELEMENT_SET_NO":999,"REV_AT_EPOCH":15104,"BSTAR":0.000041639243,"MEAN_MOTION_DOT":0.00005303,"MEAN_MOTION_DDOT":0},{"OBJECT_NAME":"PELICAN-2","OBJECT_ID":"2025-009Y","EPOCH":"2026-07-18T05:19:02.102304","CLASSIFICATION_TYPE":"U","MEAN_MOTION":15.40638954,"ECCENTRICITY":0.00022594,"INCLINATION":97.2052,"RA_OF_ASC_NODE":289.7302,"ARG_OF_PERICENTER":115.4966,"MEAN_ANOMALY":244.6515,"EPHEMERIS_TYPE":0,"NORAD_CAT_ID":62631,"ELEMENT_SET_NO":999,"REV_AT_EPOCH":8433,"BSTAR":0.00000172087,"MEAN_MOTION_DOT":-1e-7,"MEAN_MOTION_DDOT":0},{"OBJECT_NAME":"PELICAN-3","OBJECT_ID":"2025-188A","EPOCH":"2026-07-19T04:35:00.117312","CLASSIFICATION_TYPE":"U","MEAN_MOTION":15.41314738,"ECCENTRICITY":0.00021034,"INCLINATION":97.1979,"RA_OF_ASC_NODE":275.8701,"ARG_OF_PERICENTER":115.3941,"MEAN_ANOMALY":244.7524,"EPHEMERIS_TYPE":0,"NORAD_CAT_ID":65315,"ELEMENT_SET_NO":999,"REV_AT_EPOCH":5024,"BSTAR":0.00011081376,"MEAN_MOTION_DOT":0.00004533,"MEAN_MOTION_DDOT":0},{"OBJECT_NAME":"PELICAN-4","OBJECT_ID":"2025-188B","EPOCH":"2026-07-19T05:06:16.900704","CLASSIFICATION_TYPE":"U","MEAN_MOTION":15.40365595,"ECCENTRICITY":0.00015555,"INCLINATION":97.1985,"RA_OF_ASC_NODE":276.037,"ARG_OF_PERICENTER":73.1438,"MEAN_ANOMALY":286.9979,"EPHEMERIS_TYPE":0,"NORAD_CAT_ID":65316,"ELEMENT_SET_NO":999,"REV_AT_EPOCH":5024,"BSTAR":0.00010721485,"MEAN_MOTION_DOT":0.00004246,"MEAN_MOTION_DDOT":0},{"OBJECT_NAME":"PELICAN-5","OBJECT_ID":"2025-276B","EPOCH":"2026-07-18T23:04:03.182016","CLASSIFICATION_TYPE":"U","MEAN_MOTION":15.3282557,"ECCENTRICITY":0.00015178,"INCLINATION":97.4117,"RA_OF_ASC_NODE":274.9389,"ARG_OF_PERICENTER":34.0103,"MEAN_ANOMALY":326.1236,"EPHEMERIS_TYPE":0,"NORAD_CAT_ID":66667,"ELEMENT_SET_NO":999,"REV_AT_EPOCH":3538,"BSTAR":0.00031572681,"MEAN_MOTION_DOT":0.00009933,"MEAN_MOTION_DDOT":0},{"OBJECT_NAME":"PELICAN-6","OBJECT_ID":"2025-276AP","EPOCH":"2026-07-19T05:24:34.001856","CLASSIFICATION_TYPE":"U","MEAN_MOTION":15.31619201,"ECCENTRICITY":0.00022405,"INCLINATION":97.3711,"RA_OF_ASC_NODE":275.1804,"ARG_OF_PERICENTER":50.3121,"MEAN_ANOMALY":309.8318,"EPHEMERIS_TYPE":0,"NORAD_CAT_ID":66703,"ELEMENT_SET_NO":999,"REV_AT_EPOCH":3543,"BSTAR":0.00036876373,"MEAN_MOTION_DOT":0.00011187,"MEAN_MOTION_DDOT":0},{"OBJECT_NAME":"PELICAN-7","OBJECT_ID":"2026-100AP","EPOCH":"2026-07-18T06:44:41.990784","CLASSIFICATION_TYPE":"U","MEAN_MOTION":15.23689226,"ECCENTRICITY":0.0004315,"INCLINATION":97.3877,"RA_OF_ASC_NODE":96.6797,"ARG_OF_PERICENTER":83.8717,"MEAN_ANOMALY":276.3012,"EPHEMERIS_TYPE":0,"NORAD_CAT_ID":69017,"ELEMENT_SET_NO":999,"REV_AT_EPOCH":1154,"BSTAR":0.000072483,"MEAN_MOTION_DOT":0.00001669,"MEAN_MOTION_DDOT":0},{"OBJECT_NAME":"PELICAN-9","OBJECT_ID":"2026-100AR","EPOCH":"2026-07-19T04:19:03.625248","CLASSIFICATION_TYPE":"U","MEAN_MOTION":15.22888142,"ECCENTRICITY":0.00023617,"INCLINATION":97.3513,"RA_OF_ASC_NODE":97.3765,"ARG_OF_PERICENTER":111.9701,"MEAN_ANOMALY":248.1787,"EPHEMERIS_TYPE":0,"NORAD_CAT_ID":69019,"ELEMENT_SET_NO":999,"REV_AT_EPOCH":1167,"BSTAR":0.000048924182,"MEAN_MOTION_DOT":0.00001078,"MEAN_MOTION_DDOT":0}]}
