PELICAN-1               
1 58296U 23174AS  26199.23901054  .00005303  00000+0  41639-4 0  9995
2 58296  97.4011 301.5070 0006336 192.5328 167.5779 15.72007488151043
PELICAN-2               
1 62631U 25009Y   26199.22155211 -.00000010  00000+0  17209-5 0  9995
2 62631  97.2052 289.7302 0002259 115.4966 244.6515 15.40638954 84336
PELICAN-3               
1 65315U 25188A   26200.19097358  .00004533  00000+0  11081-3 0  9994
2 65315  97.1979 275.8701 0002103 115.3941 244.7524 15.41314738 50240
PELICAN-4               
1 65316U 25188B   26200.21269561  .00004246  00000+0  10721-3 0  9996
2 65316  97.1985 276.0370 0001555  73.1438 286.9979 15.40365595 50243
PELICAN-5               
1 66667U 25276B   26199.96114794  .00009933  00000+0  31573-3 0  9996
2 66667  97.4117 274.9389 0001517  34.0103 326.1236 15.32825570 35389
PELICAN-6               
1 66703U 25276AP  26200.22539354  .00011187  00000+0  36876-3 0  9997
2 66703  97.3711 275.1804 0002240  50.3121 309.8318 15.31619201 35435
PELICAN-7               
1 69017U 26100AP  26199.28104156  .00001669  00000+0  72483-4 0  9995
2 69017  97.3877  96.6797 0004315  83.8717 276.3012 15.23689226 11543
PELICAN-9               
1 69019U 26100AR  26200.17990307  .00001078  00000+0  48924-4 0  9996
2 69019  97.3513  97.3765 0002361 111.9701 248.1787 15.22888142 11677
